NUSAT-1 (FRESCO)        
1 41557U 16033B   22359.76537164  .00022893  00000+0  55559-3 0  9990
2 41557  97.3900  98.5387 0010557  54.9767  96.1185 15.40983481366770
BEESAT-4                
1 41619U 16040W   22359.37936636  .00021256  00000+0  56970-3 0  9991
2 41619  97.1901  45.3886 0008562 141.0568 219.1296 15.37974922349993
CAS-2T & KS-1Q          
1 41847U 16066G   22359.45101183  .00000774  00000+0  12549-3 0  9998
2 41847  98.5289  63.7237 0362359 358.4881   1.5181 14.38973639321814
NAYIF-1 (EO-88)         
1 42017U 17008BX  22359.44975318  .00027169  00000+0  61612-3 0  9995
2 42017  97.2450  63.4682 0002642 285.4535  74.6421 15.43044196326437
ZHUHAI-1 02 (CAS-4B)    
1 42759U 17034B   22359.48778593  .00006264  00000+0  35415-3 0  9992
2 42759  43.0184 358.5367 0009232  52.8527  83.8969 15.13656814305282
ZHUHAI-1 01 (CAS-4A)    
1 42761U 17034D   22359.75084491  .00006608  00000+0  37175-3 0  9999
2 42761  43.0180 355.7265 0009886  55.1804 302.3769 15.13762369305321
MAX VALIER SAT          
1 42778U 17036P   22359.07810230  .00011832  00000+0  39854-3 0  9993
2 42778  97.1816  33.7984 0010335  17.3582 342.8010 15.30850777306026
RADFXSAT (FOX-1B)       
1 43017U 17073E   22359.56829008  .00005776  00000+0  42763-3 0  9991
2 43017  97.6522 245.8678 0241563 281.2943  76.1217 14.83091227275429
FOX-1D (AO-92)          
1 43137U 18004AC  22359.16273623  .00015279  00000+0  46468-3 0  9996
2 43137  97.3511  72.9397 0008080  51.4075 308.7890 15.34090477275538
DIWATA-2B               
1 43678U 18084H   22359.74276679  .00001429  00000+0  14460-3 0  9991
2 43678  97.9951 135.6233 0010185  22.5503 337.6198 14.92580059226386
ES'HAIL 2               
1 43700U 18090A   22359.48875358  .00000152  00000+0  00000+0 0  9997
2 43700   0.0187  68.9205 0001369 245.2765 341.5257  1.00272599 14942
FOX-1CLIFF (AO-95)      
1 43770U 18099N   22359.43591799  .00003011  00000+0  26262-3 0  9991
2 43770  97.5979  60.7060 0013640 359.2963   0.8238 14.97527223221580
ITASAT 1                
1 43786U 18099AE  22359.41866896  .00001991  00000+0  17524-3 0  9995
2 43786  97.6021  61.6988 0014487 353.7526   6.3513 14.97533346221624
JY1SAT (JO-97)          
1 43803U 18099AX  22359.42648559  .00002805  00000+0  24024-3 0  9998
2 43803  97.5974  61.5436 0014328 350.2565   9.8378 14.98277911221650
UWE-4                   
1 43880U 18111E   22359.48441880  .00004353  00000+0  35915-3 0  9993
2 43880  97.6580 262.4498 0013294  50.3294 309.9100 14.99461968218311
NEXUS (FO-99)           
1 43937U 19003F   22359.60006172  .00015653  00000+0  43884-3 0  9991
2 43937  97.1101  25.9536 0017465 181.9114 178.2067 15.36519239219260
PSAT2 (NO-104)          
1 44354U 19036R   22359.77459404  .00169626  16139-5  67615-3 0  9993
2 44354  28.5178 265.6800 0123538   9.7552 350.5420 15.74206816194441
JAISAT-1                
1 44419U 19038F   22359.41627303  .00010934  00000+0  49194-3 0  9996
2 44419  97.6592 331.7880 0017107 183.9726 176.1376 15.21152202192042
DUCHIFAT-3              
1 44854U 19089C   22359.55576334  .00005923  00000+0  44035-3 0  9998
2 44854  36.9653  46.2080 0008023 332.1030 178.3836 15.02721409166677
CAS-6 (TIANQIN 1)       
1 44881U 19093C   22359.87628505  .00000843  00000+0  11288-3 0  9996
2 44881  97.8798  76.2141 0013553 285.2917  74.6784 14.81991671163123
RS-44 & BREEZE-KM R/B   
1 44909U 19096E   22359.58037317  .00000032  00000+0  88616-4 0  9993
2 44909  82.5216 103.3089 0216771 232.6664 125.4513 12.79717299140009
ORBITAL FACTORY 2 (OF-2)
1 45113U 19071C   22359.80336302  .00053879  00000+0  62233-3 0  9998
2 45113  51.6315 189.2179 0010406 169.5812 190.5399 15.61296488163081
HUSKYSAT-1 (HO-107)     
1 45119U 19071J   22359.58162651  .00040079  00000+0  53305-3 0  9991
2 45119  51.6316 192.9527 0010237 161.7220 198.4142 15.57714475163006
BY70-2                  
1 45857U 20042B   22359.82459283  .00011310  00000+0  14018-2 0  9990
2 45857  97.9424  75.0560 0009704 209.7980 150.2641 14.82813713133783
SALSAT                  
1 46495U 20068K   22359.31914043  .00003325  00000+0  23470-3 0  9991
2 46495  97.7524 300.9905 0016146 356.4104   3.7004 15.05555242122891
BY70-3                  
1 46839U 20079N   22359.85347699  .00055734  00000+0  83298-3 0  9996
2 46839  97.1781  70.5758 0004071  10.4750 126.2290 15.54838726119839
RADFXSAT-2 (AO-109)     
1 47311U 21002C   22359.47601722  .00010404  00000+0  36511-3 0  9998
2 47311  60.6849   1.3040 0039162  87.8598 272.6976 15.29268367107630
UVSQ-SAT                
1 47438U 21006AB  22359.39159508  .00007769  00000+0  38064-3 0  9998
2 47438  97.4125  54.5142 0010572 339.0011  21.0788 15.18376173106228
DIY-1 (ARDUIQUBE)       
1 47963U 21022AH  22359.46174060  .00027826  00000+0  12203-2 0  9999
2 47963  97.5175 259.3392 0012848 182.3972 177.7204 15.21869058 95909
XW-3 (CAS-9)            
1 50466U 21131B   22359.86563296  .00000250  00000+0  96180-4 0  9999
2 50466  98.5673  76.8966 0003518 302.4773  57.6074 14.38602484 52439
TEVEL-3                 
1 50988U 22002E   22359.75625718  .00011308  00000+0  56456-3 0  9999
2 50988  97.4602  63.6651 0010179 116.4588  30.0024 15.17610022 52391
TEVEL-8                 
1 50989U 22002F   22359.76837275  .00011478  00000+0  57388-3 0  9997
2 50989  97.4619  63.7166 0010326 116.9255  30.8034 15.17554817 52390
TEVEL-5                 
1 50998U 22002Q   22359.76975262  .00012091  00000+0  59339-3 0  9996
2 50998  97.4603  63.8962 0011835 112.7028 344.7146 15.18177633 52418
TEVEL-6                 
1 50999U 22002R   22359.76841541  .00012118  00000+0  59455-3 0  9998
2 50999  97.4595  63.8918 0011951 113.1985 342.3761 15.18184516 52411
TEVEL-1                 
1 51013U 22002AF  22359.76263086  .00011366  00000+0  56797-3 0  9998
2 51013  97.4600  63.6349 0010052 116.2685  34.2285 15.17580509 52390
TEVEL-7                 
1 51062U 22002CG  22359.77040390  .00011638  00000+0  58179-3 0  9992
2 51062  97.4612  63.6973 0010360 115.6365  31.9765 15.17556364 52399
TEVEL-4                 
1 51063U 22002CH  22359.77150247  .00011657  00000+0  58306-3 0  9999
2 51063  97.4616  63.6929 0010367 115.7295  27.0034 15.17536547 52391
TEVEL-2                 
1 51069U 22002CP  22359.75839896  .00011465  00000+0  57244-3 0  9994
2 51069  97.4593  63.6447 0009917 115.4075  32.8695 15.17607382 52391
GREENCUBE               
1 53106U 22080B   22354.06292525 -.00000003  00000+0  00000+0 0  9996
2 53106  70.1740  21.9554 0009007 225.1214 134.8715  6.42557574 10246
YUZGU 9 (RS3S)          
1 53308U 98067TT  22359.64772991  .00157338  00000+0  97527-3 0  9994
2 53308  51.6342  97.3137 0005630 299.7112  60.3327 15.76020230 24561
YUZGU 7 (RS1S)          
1 53309U 98067TU  22359.67814896  .00173066  00000+0  10188-2 0  9992
2 53309  51.6327  96.7555 0006286 301.9840  58.0548 15.77134624 24523
YUZGU 11 (RS5S)         
1 53310U 98067TV  22359.77264495  .00165379  00000+0  10162-2 0  9999
2 53310  51.6347  96.6474 0005806 299.4846  60.5575 15.76191803 24563
YUZGU 12 (RS6S)         
1 53311U 98067TW  22359.76951798  .00192176  00000+0  10667-2 0  9993
2 53311  51.6310  95.8598 0005857 305.7399  54.3056 15.78396897 24592
TSIOLKOVSKY-RYAZAN 1 (*)
1 53312U 98067TX  22359.74919108  .00172188  00000+0  10308-2 0  9994
2 53312  51.6320  96.4892 0006552 302.1971  57.8393 15.76755940 24529
TSIOLKOVSKY-RYAZAN 2 (*)
1 53313U 98067TY  22359.80623571  .00165055  00000+0  98366-3 0  9994
2 53313  51.6339  96.1218 0006234 305.6442  54.3977 15.76882867 24582
YUZGU 10 (RS4S)         
1 53321U 98067TZ  22359.69608735  .00162575  00000+0  98769-3 0  9996
2 53321  51.6346  96.8843 0005887 300.1812  59.8604 15.76458149 24561
RS29S (SXC3-2110 CYCLO*)
1 53373U 22096D   22359.87644720  .00016004  00000+0  58840-3 0  9997
2 53373  97.4282 260.5141 0003365  65.9264   0.3453 15.27969885 21135
RS32S (SXC3-212 MONITO*)
1 53374U 22096E   22359.86790299  .00015153  00000+0  55740-3 0  9990
2 53374  97.4278 260.5173 0003103  63.5234   0.9355 15.27966662 21134
RS34S (SXC3-218 KUZBAS*)
1 53375U 22096F   22359.76013625  .00012283  00000+0  45924-3 0  9995
2 53375  97.4285 260.3738 0003252  63.0298  27.4305 15.27477640 21118
RS23S (SXC3-21 UTMN)    
1 53376U 22096G   22359.81838515  .00013634  00000+0  50759-3 0  9998
2 53376  97.4285 260.4421 0003184  62.0179  12.5432 15.27594411 21123
RS28S (SXC3-214 MIET-A*)
1 53377U 22096H   22359.81886515  .00012838  00000+0  47963-3 0  9990
2 53377  97.4285 260.4425 0003331  59.7858  14.2124 15.27492548 21124
RS26S (KAI-1)           
1 53378U 22096J   22359.76388314  .00011347  00000+0  42766-3 0  9999
2 53378  97.4284 260.3670 0003136  55.1286  31.1510 15.27234048 21118
RS19S (SXC3-219 ISOI)   
1 53381U 22096M   22359.77567597  .00013099  00000+0  48154-3 0  9999
2 53381  97.4283 260.4966 0003627 350.3458  82.9436 15.28019217 21128
RS21S (CUBESX-HSE-2)    
1 53383U 22096P   22359.83626043  .00013324  00000+0  48870-3 0  9996
2 53383  97.4288 260.5696 0003690 350.3201  78.1783 15.28090651 21136
RS30S (SXC3-217 SIREN)  
1 53384U 22096Q   22359.84219134  .00012437  00000+0  45959-3 0  9996
2 53384  97.4289 260.5603 0003842 346.7508  81.6329 15.27861268 21138
RS20S (GEOSCAN-EDELVEIS)
1 53385U 22096R   22359.85820097  .00016944  00000+0  60386-3 0  9992
2 53385  97.4280 260.6857 0004218 346.5108  78.1563 15.28978312 21179
RS33S (SXC3-215 VIZARD) 
1 53386U 22096S   22359.74909469  .00019697  00000+0  68196-3 0  9997
2 53386  97.4282 260.6847 0004764 343.2788 101.2486 15.29890781 21159
CAS-5A (FO-118)         
1 54684U 22167C   22359.78951278  .00008404  00000+0  53462-3 0  9991
2 54684  97.5392 134.4979 0014337 206.2743 290.5692 15.08966810  2484
CAS-10                  
1 54816U 21035C   22359.60532587  .00070067  00000+0  78685-3 0  9998
2 54816  41.4770 133.5597 0007614 240.9673 119.0409 15.61637489  1051
